{
    "links": {
        "self": "http://www.neowsapp.com/rest/v1/neo/3878575?api_key=iIulBulltgU6a56xZRHN4H3l9WmuAYTsLGpBGhQ2"
    },
    "id": "3878575",
    "neo_reference_id": "3878575",
    "name": "(2019 TH2)",
    "designation": "2019 TH2",
    "nasa_jpl_url": "http://ssd.jpl.nasa.gov/sbdb.cgi?sstr=3878575",
    "absolute_magnitude_h": 26.5,
    "estimated_diameter": {
        "kilometers": {
            "estimated_diameter_min": 0.0133215567,
            "estimated_diameter_max": 0.0297879063
        },
        "meters": {
            "estimated_diameter_min": 13.3215566698,
            "estimated_diameter_max": 29.7879062798
        },
        "miles": {
            "estimated_diameter_min": 0.008277629,
            "estimated_diameter_max": 0.0185093411
        },
        "feet": {
            "estimated_diameter_min": 43.7058959846,
            "estimated_diameter_max": 97.7293544391
        }
    },
    "is_potentially_hazardous_asteroid": false,
    "close_approach_data": [
        {
            "close_approach_date": "1943-09-09",
            "close_approach_date_full": "1943-Sep-09 22:51",
            "epoch_date_close_approach": -830308140000,
            "relative_velocity": {
                "kilometers_per_second": "15.89040293",
                "kilometers_per_hour": "57205.450547843",
                "miles_per_hour": "35545.2423140195"
            },
            "miss_distance": {
                "astronomical": "0.3049995233",
                "lunar": "118.6448145637",
                "kilometers": "45627279.036695371",
                "miles": "28351476.5179672798"
            },
            "orbiting_body": "Earth"
        },
        {
            "close_approach_date": "2014-09-02",
            "close_approach_date_full": "2014-Sep-02 04:12",
            "epoch_date_close_approach": 1409631120000,
            "relative_velocity": {
                "kilometers_per_second": "19.6992814704",
                "kilometers_per_hour": "70917.4132935649",
                "miles_per_hour": "44065.3227212154"
            },
            "miss_distance": {
                "astronomical": "0.4356666112",
                "lunar": "169.4743117568",
                "kilometers": "65174797.065638144",
                "miles": "40497740.9913846272"
            },
            "orbiting_body": "Earth"
        },
        {
            "close_approach_date": "2019-10-13",
            "close_approach_date_full": "2019-Oct-13 06:03",
            "epoch_date_close_approach": 1570946580000,
            "relative_velocity": {
                "kilometers_per_second": "7.8164929409",
                "kilometers_per_hour": "28139.3745870812",
                "miles_per_hour": "17484.7130594006"
            },
            "miss_distance": {
                "astronomical": "0.0237969724",
                "lunar": "9.2570222636",
                "kilometers": "3559976.383488788",
                "miles": "2212066.7498017544"
            },
            "orbiting_body": "Earth"
        },
        {
            "close_approach_date": "2024-12-13",
            "close_approach_date_full": "2024-Dec-13 06:25",
            "epoch_date_close_approach": 1734071100000,
            "relative_velocity": {
                "kilometers_per_second": "15.0118467076",
                "kilometers_per_hour": "54042.6481473438",
                "miles_per_hour": "33579.9999002204"
            },
            "miss_distance": {
                "astronomical": "0.3081969009",
                "lunar": "119.8885944501",
                "kilometers": "46105599.915241083",
                "miles": "28648691.3298616254"
            },
            "orbiting_body": "Earth"
        }
    ],
    "orbital_data": {
        "orbit_id": "5",
        "orbit_determination_date": "2019-11-25 04:54:51",
        "first_observation_date": "2019-10-05",
        "last_observation_date": "2019-10-17",
        "data_arc_in_days": 12,
        "observations_used": 45,
        "orbit_uncertainty": "7",
        "minimum_orbit_intersection": ".0234522",
        "jupiter_tisserand_invariant": "3.853",
        "epoch_osculation": "2459000.5",
        "eccentricity": ".4604119729215418",
        "semi_major_axis": "1.85709658094786",
        "inclination": "7.812021617769192",
        "ascending_node_longitude": "15.88605273798691",
        "orbital_period": "924.3791955558235",
        "perihelion_distance": "1.002067080207806",
        "perihelion_argument": "22.54563832956527",
        "aphelion_distance": "2.712126081687915",
        "perihelion_time": "2458785.720873650936",
        "mean_anomaly": "83.64585211069212",
        "mean_motion": ".389450565017892",
        "equinox": "J2000",
        "orbit_class": {
            "orbit_class_type": "APO",
            "orbit_class_description": "Near-Earth asteroid orbits which cross the Earth’s orbit similar to that of 1862 Apollo",
            "orbit_class_range": "a (semi-major axis) > 1.0 AU; q (perihelion) < 1.017 AU"
        }
    },
    "is_sentry_object": false
}